{
  "type": "FeatureCollection",
  "features": [
    {
      "type": "Feature",
      "properties": {
        "norad_id": 33822,
        "name": "COSMOS 2251 DEB",
        "group": "cosmos-2251-debris",
        "lat": 35.94096175821069,
        "lon": -139.35960325456955,
        "alt_km": 931.7667205967919,
        "timestamp": "2025-12-04T05:42:43.764759+00:00",
        "meta_object_name": "COSMOS 2251 DEB",
        "meta_object_id": "1993-036BP",
        "meta_epoch": "2025-12-03T17:56:46.730112",
        "meta_mean_motion": 14.12999308,
        "meta_eccentricity": 0.01540274,
        "meta_inclination": 74.0696,
        "meta_ra_of_asc_node": 209.5553,
        "meta_arg_of_pericenter": 257.9488,
        "meta_mean_anomaly": 165.8405,
        "meta_ephemeris_type": 0,
        "meta_classification_type": "U",
        "meta_norad_cat_id": 33822,
        "meta_element_set_no": 999,
        "meta_rev_at_epoch": 85927,
        "meta_bstar": 0.0018690676,
        "meta_mean_motion_dot": 3.877e-05,
        "meta_mean_motion_ddot": 0,
        "tle_line1": "1 33822U 93036BP  25337.74776308  .00003877  00000+0  18691-2 0  9992",
        "tle_line2": "2 33822  74.0696 209.5553 0154027 257.9488 165.8405 14.12999308859279"
      },
      "geometry": {
        "type": "Point",
        "coordinates": [
          -139.35960325456955,
          35.94096175821069
        ]
      }
    },
    {
      "type": "Feature",
      "properties": {
        "norad_id": 33823,
        "name": "COSMOS 2251 DEB",
        "group": "cosmos-2251-debris",
        "lat": -64.78797581417672,
        "lon": 126.1256249149255,
        "alt_km": 752.1676259835185,
        "timestamp": "2025-12-04T05:42:43.764769+00:00",
        "meta_object_name": "COSMOS 2251 DEB",
        "meta_object_id": "1993-036BQ",
        "meta_epoch": "2025-12-03T06:54:01.670112",
        "meta_mean_motion": 13.98912755,
        "meta_eccentricity": 0.0209252,
        "meta_inclination": 73.8087,
        "meta_ra_of_asc_node": 165.8955,
        "meta_arg_of_pericenter": 292.5793,
        "meta_mean_anomaly": 252.1811,
        "meta_ephemeris_type": 0,
        "meta_classification_type": "U",
        "meta_norad_cat_id": 33823,
        "meta_element_set_no": 999,
        "meta_rev_at_epoch": 85477,
        "meta_bstar": 0.00098413,
        "meta_mean_motion_dot": 1.686e-05,
        "meta_mean_motion_ddot": 0,
        "tle_line1": "1 33823U 93036BQ  25337.28751933  .00001686  00000+0  98413-3 0  9996",
        "tle_line2": "2 33823  73.8087 165.8955 0209252 292.5793 252.1811 13.98912755854771"
      },
      "geometry": {
        "type": "Point",
        "coordinates": [
          126.1256249149255,
          -64.78797581417672
        ]
      }
    },
    {
      "type": "Feature",
      "properties": {
        "norad_id": 33825,
        "name": "COSMOS 2251 DEB",
        "group": "cosmos-2251-debris",
        "lat": -58.799692681557005,
        "lon": 16.013885744427647,
        "alt_km": 654.523227079475,
        "timestamp": "2025-12-04T05:42:43.764779+00:00",
        "meta_object_name": "COSMOS 2251 DEB",
        "meta_object_id": "1993-036BS",
        "meta_epoch": "2025-12-03T15:51:30.966048",
        "meta_mean_motion": 14.69629372,
        "meta_eccentricity": 0.0084105,
        "meta_inclination": 73.9862,
        "meta_ra_of_asc_node": 45.4436,
        "meta_arg_of_pericenter": 14.7825,
        "meta_mean_anomaly": 110.6596,
        "meta_ephemeris_type": 0,
        "meta_classification_type": "U",
        "meta_norad_cat_id": 33825,
        "meta_element_set_no": 999,
        "meta_rev_at_epoch": 88746,
        "meta_bstar": 0.0011877745,
        "meta_mean_motion_dot": 7.432e-05,
        "meta_mean_motion_ddot": 0,
        "tle_line1": "1 33825U 93036BS  25337.66077507  .00007432  00000+0  11878-2 0  9992",
        "tle_line2": "2 33825  73.9862  45.4436 0084105  14.7825 110.6596 14.69629372887469"
      },
      "geometry": {
        "type": "Point",
        "coordinates": [
          16.013885744427647,
          -58.799692681557005
        ]
      }
    },
    {
      "type": "Feature",
      "properties": {
        "norad_id": 33826,
        "name": "COSMOS 2251 DEB",
        "group": "cosmos-2251-debris",
        "lat": 18.02863209603299,
        "lon": 71.19391208830758,
        "alt_km": 724.2165091806337,
        "timestamp": "2025-12-04T05:42:43.764790+00:00",
        "meta_object_name": "COSMOS 2251 DEB",
        "meta_object_id": "1993-036BT",
        "meta_epoch": "2025-12-03T16:57:31.078944",
        "meta_mean_motion": 14.51565138,
        "meta_eccentricity": 0.00843766,
        "meta_inclination": 74.0655,
        "meta_ra_of_asc_node": 66.8568,
        "meta_arg_of_pericenter": 114.0294,
        "meta_mean_anomaly": 10.0588,
        "meta_ephemeris_type": 0,
        "meta_classification_type": "U",
        "meta_norad_cat_id": 33826,
        "meta_element_set_no": 999,
        "meta_rev_at_epoch": 87638,
        "meta_bstar": 0.0022015897,
        "meta_mean_motion_dot": 9.214e-05,
        "meta_mean_motion_ddot": 0,
        "tle_line1": "1 33826U 93036BT  25337.70660971  .00009214  00000+0  22016-2 0  9997",
        "tle_line2": "2 33826  74.0655  66.8568 0084376 114.0294  10.0588 14.51565138876382"
      },
      "geometry": {
        "type": "Point",
        "coordinates": [
          71.19391208830758,
          18.02863209603299
        ]
      }
    },
    {
      "type": "Feature",
      "properties": {
        "norad_id": 33828,
        "name": "COSMOS 2251 DEB",
        "group": "cosmos-2251-debris",
        "lat": 36.99508524889329,
        "lon": 61.4531955858244,
        "alt_km": 762.1323891844804,
        "timestamp": "2025-12-04T05:42:43.764801+00:00",
        "meta_object_name": "COSMOS 2251 DEB",
        "meta_object_id": "1993-036BV",
        "meta_epoch": "2025-12-03T21:02:45.489696",
        "meta_mean_motion": 14.44281597,
        "meta_eccentricity": 0.0029345,
        "meta_inclination": 74.0475,
        "meta_ra_of_asc_node": 254.5694,
        "meta_arg_of_pericenter": 328.8871,
        "meta_mean_anomaly": 95.5387,
        "meta_ephemeris_type": 0,
        "meta_classification_type": "U",
        "meta_norad_cat_id": 33828,
        "meta_element_set_no": 999,
        "meta_rev_at_epoch": 88185,
        "meta_bstar": 0.00085680852,
        "meta_mean_motion_dot": 2.935e-05,
        "meta_mean_motion_ddot": 0,
        "tle_line1": "1 33828U 93036BV  25337.87691539  .00002935  00000+0  85681-3 0  9992",
        "tle_line2": "2 33828  74.0475 254.5694 0029345 328.8871  95.5387 14.44281597881850"
      },
      "geometry": {
        "type": "Point",
        "coordinates": [
          61.4531955858244,
          36.99508524889329
        ]
      }
    },
    {
      "type": "Feature",
      "properties": {
        "norad_id": 33830,
        "name": "COSMOS 2251 DEB",
        "group": "cosmos-2251-debris",
        "lat": 69.6798601668395,
        "lon": 16.392956754303416,
        "alt_km": 634.4676669108658,
        "timestamp": "2025-12-04T05:42:43.764811+00:00",
        "meta_object_name": "COSMOS 2251 DEB",
        "meta_object_id": "1993-036BX",
        "meta_epoch": "2025-12-03T19:46:53.878944",
        "meta_mean_motion": 14.76701064,
        "meta_eccentricity": 0.00421652,
        "meta_inclination": 74.0333,
        "meta_ra_of_asc_node": 247.8418,
        "meta_arg_of_pericenter": 9.793,
        "meta_mean_anomaly": 53.6736,
        "meta_ephemeris_type": 0,
        "meta_classification_type": "U",
        "meta_norad_cat_id": 33830,
        "meta_element_set_no": 999,
        "meta_rev_at_epoch": 89340,
        "meta_bstar": 0.0015648681,
        "meta_mean_motion_dot": 0.00011099,
        "meta_mean_motion_ddot": 0,
        "tle_line1": "1 33830U 93036BX  25337.82423471  .00011099  00000+0  15649-2 0  9995",
        "tle_line2": "2 33830  74.0333 247.8418 0042165   9.7930  53.6736 14.76701064893409"
      },
      "geometry": {
        "type": "Point",
        "coordinates": [
          16.392956754303416,
          69.6798601668395
        ]
      }
    },
    {
      "type": "Feature",
      "properties": {
        "norad_id": 33832,
        "name": "COSMOS 2251 DEB",
        "group": "cosmos-2251-debris",
        "lat": -65.0690316258617,
        "lon": -171.76010947995826,
        "alt_km": 682.9112415328191,
        "timestamp": "2025-12-04T05:42:43.764825+00:00",
        "meta_object_name": "COSMOS 2251 DEB",
        "meta_object_id": "1993-036BZ",
        "meta_epoch": "2025-12-03T18:52:18.429888",
        "meta_mean_motion": 14.60455194,
        "meta_eccentricity": 0.0025656,
        "meta_inclination": 74.0554,
        "meta_ra_of_asc_node": 227.0546,
        "meta_arg_of_pericenter": 259.8856,
        "meta_mean_anomaly": 175.6102,
        "meta_ephemeris_type": 0,
        "meta_classification_type": "U",
        "meta_norad_cat_id": 33832,
        "meta_element_set_no": 999,
        "meta_rev_at_epoch": 88294,
        "meta_bstar": 0.0020975265,
        "meta_mean_motion_dot": 0.00010199,
        "meta_mean_motion_ddot": 0,
        "tle_line1": "1 33832U 93036BZ  25337.78632442  .00010199  00000+0  20975-2 0  9990",
        "tle_line2": "2 33832  74.0554 227.0546 0025656 259.8856 175.6102 14.60455194882941"
      },
      "geometry": {
        "type": "Point",
        "coordinates": [
          -171.76010947995826,
          -65.0690316258617
        ]
      }
    }
  ]
}